{"type": "FeatureCollection", "features": [ {"type": "Feature", "properties": {"norad_id": 66923, "name": "HULIANWANG DIGUI 14J", "group": "last-30-days", "lat": -8.723191772192868, "lon": -33.84516200003106, "alt_km": 872.7565862472256, "timestamp": "2025-12-07T11:27:48.742232+00:00", "meta": {"OBJECT_NAME": "HULIANWANG DIGUI 14J", "OBJECT_ID": "2025-285J", "EPOCH": "2025-12-07T08:51:06.879168", "MEAN_MOTION": 14.06515996, "ECCENTRICITY": 0.0005414, "INCLINATION": 50.0087, "RA_OF_ASC_NODE": 139.2005, "ARG_OF_PERICENTER": 278.7654, "MEAN_ANOMALY": 81.2638, "EPHEMERIS_TYPE": 0, "CLASSIFICATION_TYPE": "U", "NORAD_CAT_ID": 66923, "ELEMENT_SET_NO": 999, "REV_AT_EPOCH": 15, "BSTAR": 7.0158e-06, "MEAN_MOTION_DOT": -1.41e-06, "MEAN_MOTION_DDOT": 0}, "tle": {"line1": "1 66923U 25285J   25341.36882962 -.00000141  00000+0  70158-5 0  9999", "line2": "2 66923  50.0087 139.2005 0005414 278.7654  81.2638 14.06515996   151"}}, "geometry": {"type": "Point", "coordinates": [-33.84516200003106, -8.723191772192868]}}, {"type": "Feature", "properties": {"norad_id": 66924, "name": "CZ-8A R/B", "group": "last-30-days", "lat": -46.80179769146732, "lon": 75.17433152849877, "alt_km": 874.5183211356571, "timestamp": "2025-12-07T11:27:48.742256+00:00", "meta": {"OBJECT_NAME": "CZ-8A R/B", "OBJECT_ID": "2025-285K", "EPOCH": "2025-12-06T12:19:51.036960", "MEAN_MOTION": 14.30448863, "ECCENTRICITY": 0.0118852, "INCLINATION": 50.0062, "RA_OF_ASC_NODE": 142.6566, "ARG_OF_PERICENTER": 84.4915, "MEAN_ANOMALY": 276.9544, "EPHEMERIS_TYPE": 0, "CLASSIFICATION_TYPE": "U", "NORAD_CAT_ID": 66924, "ELEMENT_SET_NO": 999, "REV_AT_EPOCH": 3, "BSTAR": 2.573e-05, "MEAN_MOTION_DOT": -9.5e-07, "MEAN_MOTION_DDOT": 0}, "tle": {"line1": "1 66924U 25285K   25340.51378515 -.00000095  00000+0  25730-4 0  9993", "line2": "2 66924  50.0062 142.6566 0118852  84.4915 276.9544 14.30448863    39"}}, "geometry": {"type": "Point", "coordinates": [75.17433152849877, -46.80179769146732]}}]}